NORAD_CAT_ID,OBJECT_NAME,OBJECT_TYPE,EPOCH,MEAN_MOTION,ECCENTRICITY,INCLINATION,RA_OF_ASC_NODE,ARG_OF_PERICENTER,MEAN_ANOMALY,BSTAR,MEAN_MOTION_DOT,MEAN_MOTION_DDOT,TLE_LINE0,TLE_LINE1,TLE_LINE2,SEMIMAJOR_AXIS,PERIOD,APOGEE,PERIGEE,DECAYED
51149.0,STARLINK-3360,PAYLOAD,2022-12-03 05:18:44,15.0883531,0.0002513,53.2176,262.3139,32.1044,328.0101,1.6484e-05,-2.6e-07,0.0,0 STARLINK-3360,1 51149U 22005AX  22337.22134537 -.00000026  00000-0  16484-4 0  9999,2 51149  53.2176 262.3139 0002513  32.1044 328.0101 15.08835310 49683,6917.895,95.438,541.498,538.021,0.0
51149.0,STARLINK-3360,PAYLOAD,2022-12-03 11:40:17,15.08828046,0.0002556,53.2171,261.1246,32.893,327.2221,-7.8512e-05,-1.537e-05,0.0,0 STARLINK-3360,1 51149U 22005AX  22337.48631449 -.00001537  00000-0 -78512-4 0  9990,2 51149  53.2171 261.1246 0002556  32.8930 327.2221 15.08828046 48616,6917.917,95.438,541.55,538.014,0.0
51149.0,STARLINK-3360,PAYLOAD,2022-12-04 01:58:45,15.08839165,0.0002538,53.217,258.4473,29.4758,330.6377,1.5127e-05,-4.8e-07,0.0,0 STARLINK-3360,1 51149U 22005AX  22338.08246667 -.00000048  00000-0  15127-4 0  9999,2 51149  53.2170 258.4473 0002538  29.4758 330.6377 15.08839165 49813,6917.8830000000025,95.438,541.504,537.992,0.0
51149.0,STARLINK-3360,PAYLOAD,2022-12-04 11:31:03,15.08842356,0.0002604,53.217,256.663,31.4764,328.6384,2.272800000000001e-05,7.3e-07,0.0,0 STARLINK-3360,1 51149U 22005AX  22338.47990444  .00000073  00000-0  22728-4 0  9993,2 51149  53.2170 256.6630 0002604  31.4764 328.6384 15.08842356 48766,6917.873000000001,95.437,541.54,537.937,0.0
51149.0,STARLINK-3360,PAYLOAD,2022-12-05 11:21:51,15.08835601,0.0002473,53.2179,252.203,30.5348,329.5788,9.1789e-05,1.173e-05,0.0,0 STARLINK-3360,1 51149U 22005AX  22339.47350742  .00001173  00000-0  91789-4 0  9990,2 51149  53.2179 252.2030 0002473  30.5348 329.5788 15.08835601 50028,6917.894,95.438,541.47,538.048,0.0
51149.0,STARLINK-3360,PAYLOAD,2022-12-06 11:12:37,15.08843662,0.0002624,53.2172,247.7423,32.655,327.4604,1.2101e-05,-9.6e-07,0.0,0 STARLINK-3360,1 51149U 22005AX  22340.46710310 -.00000096  00000-0  12101-4 0  9997,2 51149  53.2172 247.7423 0002624  32.6550 327.4604 15.08843662 49064,6917.869000000002,95.437,541.549,537.919,0.0
51149.0,STARLINK-3360,PAYLOAD,2022-12-06 17:34:11,15.08830244,0.000269,53.2172,246.5541,35.4085,324.7085,-7.126e-05,-1.422e-05,0.0,0 STARLINK-3360,1 51149U 22005AX  22340.73207518 -.00001422  00000-0 -71260-4 0  9994,2 51149  53.2172 246.5541 0002690  35.4085 324.7085 15.08830244 50213,6917.91,95.438,541.636,537.914,0.0
51149.0,STARLINK-3360,PAYLOAD,2022-12-07 11:03:26,15.08833539,0.0002511,53.2171,243.2823,32.8379,327.2769,-8.4731e-05,-1.637e-05,0.0,0 STARLINK-3360,1 51149U 22005AX  22341.46071783 -.00001637  00000-0 -84731-4 0  9993,2 51149  53.2171 243.2823 0002511  32.8379 327.2769 15.08833539 49213,6917.9,95.438,541.502,538.028,0.0
51149.0,STARLINK-3360,PAYLOAD,2022-12-07 23:46:30,15.08837692,0.0003173,53.2174,240.9026,32.1444,327.9741,0.00010681,1.412e-05,0.0,0 STARLINK-3360,1 51149U 22005AX  22341.99063107  .00001412  00000-0  10681-3 0  9993,2 51149  53.2174 240.9026 0003173  32.1444 327.9741 15.08837692 50400,6917.887,95.438,541.947,537.557,0.0
51149.0,STARLINK-3360,PAYLOAD,2022-12-08 10:54:10,15.08856909,0.0002461,53.2176,238.824,16.0786,344.0284,0.00016726,2.376e-05,0.0,0 STARLINK-3360,1 51149U 22005AX  22342.45428991  .00002376  00000-0  16726-3 0  9997,2 51149  53.2176 238.8240 0002461  16.0786 344.0284 15.08856909 49362,6917.829000000002,95.436,541.396,537.991,0.0
51149.0,STARLINK-3360,PAYLOAD,2022-12-08 23:37:13,15.08923261,0.0002454,53.217,236.4482,28.8561,331.2566,-0.00023047,-3.963e-05,0.0,0 STARLINK-3360,1 51149U 22005AX  22342.98417975 -.00003963  00000-0 -23047-3 0  9994,2 51149  53.2170 236.4482 0002454  28.8561 331.2566 15.08923261 50552,6917.626,95.432,541.188,537.793,0.0
51149.0,STARLINK-3360,PAYLOAD,2022-12-09 09:09:38,15.08794572,0.0002768999999999,53.217,234.6646,23.4644,336.6474,-0.0001254,-2.281e-05,0.0,0 STARLINK-3360,1 51149U 22005AX  22343.38169495 -.00002281  00000-0 -12540-3 0  9998,2 51149  53.2170 234.6646 0002769  23.4644 336.6474 15.08794572 49507,6918.019,95.44,541.8,537.969,0.0
51149.0,STARLINK-3360,PAYLOAD,2022-12-09 20:17:18,15.08773003,0.0002329,53.218,232.5827,320.2669,39.8152,0.00090827,0.0001416999999999,0.0,0 STARLINK-3360,1 51149U 22005AX  22343.84535805  .00014170  00000-0  90827-3 0  9993,2 51149  53.2180 232.5827 0002329 320.2669  39.8152 15.08773003 50685,6918.085,95.442,541.561,538.339,0.0
51149.0,STARLINK-3360,PAYLOAD,2022-12-10 02:38:57,15.08759024,0.0002617,53.2177,231.3926,16.2738,343.8338,-0.00095822,-0.00015473,0.0,0 STARLINK-3360,1 51149U 22005AX  22344.11038701 -.00015473  00000-0 -95822-3 0  9996,2 51149  53.2177 231.3926 0002617  16.2738 343.8338 15.08759024 50723,6918.128000000002,95.443,541.803,538.182,0.0
51149.0,STARLINK-3360,PAYLOAD,2022-12-10 07:25:02,15.08819129,0.000308,53.2176,230.4999,21.6928,338.4194,-0.00026691,-4.532e-05,0.0,0 STARLINK-3360,1 51149U 22005AX  22344.30905472 -.00004532  00000-0 -26691-3 0  9997,2 51149  53.2176 230.4999 0003080  21.6928 338.4194 15.08819129 49640,6917.944,95.439,541.94,537.678,0.0
51149.0,STARLINK-3360,PAYLOAD,2022-12-10 20:08:07,15.08801167,0.00024,53.2176,228.1205,352.9838,7.112,0.00021515,3.134e-05,0.0,0 STARLINK-3360,1 51149U 22005AX  22344.83897212  .00003134  00000-0  21515-3 0  9992,2 51149  53.2176 228.1205 0002400 352.9838   7.1120 15.08801167 49720,6917.999,95.44,541.524,538.2040000000002,0.0
51149.0,STARLINK-3360,PAYLOAD,2022-12-10 23:18:52,15.08835013,0.0002407,53.2172,227.5241,36.4829,323.6327,-0.0001392,-2.503e-05,0.0,0 STARLINK-3360,1 51149U 22005AX  22344.97144553 -.00002503  00000-0 -13920-3 0  9992,2 51149  53.2172 227.5241 0002407  36.4829 323.6327 15.08835013 50858,6917.896,95.438,541.4259999999998,538.095,0.0
51149.0,STARLINK-3360,PAYLOAD,2022-12-11 19:58:53,15.08824074,0.0002571,53.2166,223.6578,26.7982,333.3142,0.0002589,3.833e-05,0.0,0 STARLINK-3360,1 51149U 22005AX  22345.83256491  .00003833  00000-0  25890-3 0  9997,2 51149  53.2166 223.6578 0002571  26.7982 333.3142 15.08824074 49873,6917.929,95.439,541.573,538.015,0.0
51149.0,STARLINK-3360,PAYLOAD,2022-12-12 00:45:02,15.08834592,0.0002518,53.2166,222.7643,30.5546,329.5592,0.00033812,5.096e-05,0.0,0 STARLINK-3360,1 51149U 22005AX  22346.03127986  .00005096  00000-0  33812-3 0  9992,2 51149  53.2166 222.7643 0002518  30.5546 329.5592 15.08834592 51017,6917.897,95.438,541.504,538.02,0.0
51149.0,STARLINK-3360,PAYLOAD,2022-12-13 00:35:50,15.08837433,0.0002737,53.2177,218.3015,32.639,327.4771,0.0001286,1.759e-05,0.0,0 STARLINK-3360,1 51149U 22005AX  22347.02488795  .00001759  00000-0  12860-3 0  9992,2 51149  53.2177 218.3015 0002737  32.6390 327.4771 15.08837433 51165,6917.888000000001,95.438,541.6469999999998,537.86,0.0
51149.0,STARLINK-3360,PAYLOAD,2022-12-13 08:32:45,15.08839794,0.0002923,53.2174,216.8142,32.6948,327.4224,0.00011012,1.464e-05,0.0,0 STARLINK-3360,1 51149U 22005AX  22347.35608720  .00001464  00000-0  11012-3 0  9991,2 51149  53.2174 216.8142 0002923  32.6948 327.4224 15.08839794 50100,6917.880999999999,95.438,541.768,537.724,0.0
51149.0,STARLINK-3360,PAYLOAD,2022-12-14 08:23:32,15.08848078,0.0002508,53.2161,212.3564,33.2954,326.8196,-7.8811e-05,-1.543e-05,0.0,0 STARLINK-3360,1 51149U 22005AX  22348.34968249 -.00001543  00000-0 -78811-4 0  9997,2 51149  53.2161 212.3564 0002508  33.2954 326.8196 15.08848078 51363,6917.856,95.437,541.456,537.986,0.0
51149.0,STARLINK-3360,PAYLOAD,2022-12-14 21:06:37,15.08844928,0.0002376,53.2172,209.9775,28.0492,332.0628,5.7305e-05,6.24e-06,0.0,0 STARLINK-3360,1 51149U 22005AX  22348.87959859  .00000624  00000-0  57305-4 0  9994,2 51149  53.2172 209.9775 0002376  28.0492 332.0628 15.08844928 50338,6917.865,95.437,541.374,538.087,0.0
51149.0,STARLINK-3360,PAYLOAD,2022-12-15 01:52:47,15.08835686,0.0001789,53.2168,209.085,20.7757,339.3307,9.2708e-06,-1.41e-06,0.0,0 STARLINK-3360,1 51149U 22005AX  22349.07832211 -.00000141  00000-0  92708-5 0  9991,2 51149  53.2168 209.0850 0001789  20.7757 339.3307 15.08835686 51479,6917.894,95.438,540.996,538.521,0.0
51149.0,STARLINK-3360,PAYLOAD,2022-12-15 08:14:19,15.088414000000002,0.0002586,53.2164,207.8961,33.243,326.8724,3.2087e-05,2.22e-06,0.0,0 STARLINK-3360,1 51149U 22005AX  22349.34328187  .00000222  00000-0  32087-4 0  9995,2 51149  53.2164 207.8961 0002586  33.2430 326.8724 15.08841400 50404,6917.876,95.437,541.53,537.952,0.0
51149.0,STARLINK-3360,PAYLOAD,2022-12-15 19:22:01,15.08843976,0.0002462,53.2165,205.8154,28.7948,331.3179,0.00010572,1.395e-05,0.0,0 STARLINK-3360,1 51149U 22005AX  22349.80695700  .00001395  00000-0  10572-3 0  9990,2 51149  53.2165 205.8154 0002462  28.7948 331.3179 15.08843976 50475,6917.868,95.437,541.436,538.03,0.0
51149.0,STARLINK-3360,PAYLOAD,2022-12-15 22:32:47,15.08849521,0.000265,53.2162,205.2199,33.7332,326.3828,0.00011086,1.477e-05,0.0,0 STARLINK-3360,1 51149U 22005AX  22349.93943432  .00001477  00000-0  11086-3 0  9994,2 51149  53.2162 205.2199 0002650  33.7332 326.3828 15.08849521 51600,6917.851,95.437,541.55,537.883,0.0
51149.0,STARLINK-3360,PAYLOAD,2022-12-16 08:05:04,15.08872089,0.0003137,53.2158,203.4354,40.5789,319.5437,0.00033845,5.107e-05,0.0,0 STARLINK-3360,1 51149U 22005AX  22350.33685704  .00005107  00000-0  33845-3 0  9996,2 51149  53.2158 203.4354 0003137  40.5789 319.5437 15.08872089 51662,6917.781999999997,95.436,541.817,537.477,0.0
51149.0,STARLINK-3360,PAYLOAD,2022-12-16 17:37:28,15.08713083,0.000175,53.2161,201.6518,40.4396,319.6726,0.0019343,0.00030523,0.0,0 STARLINK-3360,1 51149U 22005AX  22350.73436087  .00030523  00000-0  19343-2 0  9994,2 51149  53.2161 201.6518 0001750  40.4396 319.6726 15.08713083 51727,6918.268,95.446,541.344,538.923,0.0
